#aV2011  6 21  0  0   .00000000      96 DD+AD WGS84 FIT  NGA
## 1641 172800.00000000   900.00000000 55733  .0000000000000
+   32     1  2  3  4  5  6  7  8  9 10 11 12 13 14 15 16 17
+         18 19 20 21 22 23 24 25 26 27 28 29 30 31 32  0  0
+          0  0  0  0  0  0  0  0  0  0  0  0  0  0  0  0  0
+          0  0  0  0  0  0  0  0  0  0  0  0  0  0  0  0  0
+          0  0  0  0  0  0  0  0  0  0  0  0  0  0  0  0  0
++         0  0  0  0  0  0  0  0  0  0  0  0  0  0  0  0  0
++         0  0  0  0  0  0  0  0  0  0  0  0  0  0  0  0  0
++         0  0  0  0  0  0  0  0  0  0  0  0  0  0  0  0  0
++         0  0  0  0  0  0  0  0  0  0  0  0  0  0  0  0  0
++         0  0  0  0  0  0  0  0  0  0  0  0  0  0  0  0  0
%c cc cc ccc ccc cccc cccc cccc cccc ccccc ccccc ccccc ccccc
%c cc cc ccc ccc cccc cccc cccc cccc ccccc ccccc ccccc ccccc
%f  0.0000000  0.000000000  0.00000000000  0.000000000000000
%f  0.0000000  0.000000000  0.00000000000  0.000000000000000
%i    0    0    0    0      0      0      0      0         0
%i    0    0    0    0      0      0      0      0         0
/*      NGA, ST. LOUIS,MO.                                  
/*   EPHEMERIS COMPUTED FROM  3 DAYS OF DATA                
/* CCCCCCCCCCCCCCCCCCCCCCCCCCCCCCCCCCCCCCCCCCCCCCCCCCCCCCCCC
/* CCCCCCCCCCCCCCCCCCCCCCCCCCCCCCCCCCCCCCCCCCCCCCCCCCCCCCCCC
*  2011  6 21  0 45   .00000000                                                 
P  1 -22304.556363  13798.665134   3693.118487     92.633981                    
V  1   2252.207355  -5518.083451  31205.196752       .027065                    
P  2 -13784.063928 -14165.937649 -17907.178851    342.750760                    
V  2    627.110190 -22796.943390  17006.919589       .019116                    
P  3  24374.554546  10876.928564  -1909.389307    731.438696                    
V  3  -3045.917475   2590.238033 -30712.771036       .051223                    
P  4  -6863.504845 -24122.621970  -8405.301163    149.934137                    
V  4   3198.829575 -10621.961968  28927.647555       .107089                    
P  5 -19119.098256  -3323.442689 -18194.986393   -177.836991                    
V  5  18761.354031 -13496.964894 -17157.218543      -.056228                    
P  6  22114.108589  14159.551983  -4604.087809    161.117162                    
V  6  -6864.885188    450.985584 -30321.047077      -.822612                    
P  7   6275.789659 -23695.515172  -9941.611718     15.048702                    
V  7   2549.687419  12629.745555 -28702.940999       .013161                    
P  8   1548.017319 -26204.402296   -118.611438      8.257874                    
V  8   2144.757291    303.576167 -32900.861212       .001248                    
P  9 -13625.639141   7484.083887  20981.748116     87.713956                    
V  9  -1976.250095 -27825.488323   8416.088142       .024470                    
P 10  -4505.680000 -15204.578094 -21482.335851     -4.300927                    
V 10  23472.294207 -13079.616562   4749.087276      -.010708                    
P 11  15811.773293  -5083.685071  20396.359137   -161.284123                    
V 11   7830.623275  25837.693754    710.893019      -.033026                    
P 12 -23679.477547  11290.533598   3510.484181      3.859638                    
V 12   2572.688405  -4388.378210  31786.788702       .025802                    
P 13   9623.338115 -11169.466464 -22239.272834    264.640888                    
V 13  23261.141059  15228.882713   2366.889898      -.016712                    
P 14   9350.830091  18738.219229  16583.965303    157.201772                    
V 14 -18255.518460  -9733.965730  21358.703937       .021880                    
P 15 -23272.151796  -1625.967657  12854.376114   -120.375072                    
V 15 -13362.390381  -9603.911013 -25253.978929       .022489                    
P 16  18838.828561   3634.290065 -18482.093083   -180.348504                    
V 16 -19749.246160  12508.764209 -17355.099711      -.025181                    
P 17  -9945.837536 -18802.605117  16187.495453    183.499275                    
V 17  18342.676931   8637.378362  21269.196995      -.004955                    
P 18 -11402.669876  19211.828605  14395.779788    143.246746                    
V 18 -16917.075115   6698.818638 -23231.992500       .019245                    
P 19  23629.455881   6452.534668  10700.103540   -153.571716                    
V 19  10061.175034   9244.784904 -27424.795662      -.041136                    
P 20  22332.527215 -14285.057938    790.530943     50.059449                    
V 20   1110.213346   3768.282700  31146.624223       .002788                    
P 21  -4693.655843  24736.120268  -6989.661501   -152.571433                    
V 21  -4324.272039  -9533.495957 -29705.201646      -.025803                    
P 22    933.958688  17120.408335  20435.710356    147.212841                    
V 22 -22714.418726  12077.721501  -9270.660443      -.002537                    
P 23  19430.343592  -3464.781079 -17936.491279    297.694263                    
V 23  19154.963480  12146.792592  18051.854039      -.027977                    
P 24  14414.364755 -10398.519591  19702.767925    400.200253                    
V 24    834.334806  25060.111477  12938.516671       .031391                    
P 25 -17736.753320  17985.456338  -8186.367415      5.016740                    
V 25 -10104.425143   3427.619285  29530.312526       .020246                    
P 26 -23192.949652 -13049.697391   2358.804976    -66.690803                    
V 26  -2194.348924  -3406.852283 -31887.117036      -.115415                    
P 27 -15076.225743    521.214291  22518.433327    276.992762                    
V 27  -2111.486663 -26873.748635   -485.362860       .037667                    
P 28   3335.040836 -17507.152512  20129.507109     46.241798                    
V 28  21848.382080 -11064.129570 -13845.884132       .026371                    
P 29 -11388.737430  10634.011429 -21428.809128    216.848832                    
V 29 -23346.823875 -14333.987712   5320.733239       .031167                    
P 30  11144.395075  10930.918028 -21907.205081     13.900336                    
V 30 -22058.719274  15276.051198  -3646.515480       .045583                    
P 31   7542.511366  22947.941258 -10597.507117     98.726226                    
V 31  -1899.376177  13836.559238  28291.721014       .058882                    
P 32  24455.728883  -5858.729433   8127.691253   -277.055315                    
V 32  -7619.474663   7269.482828  29570.316806      -.071696                    
EOF
